ASTRA 2G                
1 40364U 14089A   26201.26748252  .00000148  00000+0  00000+0 0  9997
2 40364   0.0595  38.0352 0004570  39.7307 344.7350  1.00271329 42292
FENGYUN 2G              
1 40367U 14090A   26200.64000413 -.00000309  00000+0  00000+0 0  9993
2 40367   5.7192  72.4242 0003943 173.6464  21.2039  1.00279249 42329
MUOS-3                  
1 40374U 15002A   26201.25890249 -.00000133  00000+0  00000+0 0  9992
2 40374   4.5826  43.6405 0053917 177.0279 155.0635  1.00273256 41911
INMARSAT 5-F2           
1 40384U 15005A   26201.20972186 -.00000288  00000+0  00000+0 0  9993
2 40384   0.0191  59.4460 0000667  61.6598 197.3836  1.00272315 41322
ABS-3A                  
1 40424U 15010A   26201.26132917 -.00000028  00000+0  00000+0 0  9992
2 40424   0.0114  47.8571 0001663  25.1604 316.1444  1.00274958 41709
EUTELSAT 115 WEST B     
1 40425U 15010B   26201.29431749 -.00000027  00000+0  00000+0 0  9990
2 40425   0.0071 115.9672 0000075  24.1681 148.9798  1.00271909 41718
EXPRESS-AM7             
1 40505U 15012A   26201.26982253  .00000149  00000+0  00000+0 0  9993
2 40505   0.0195  78.6685 0002963  45.7488 310.7436  1.00273440 41333
BEIDOU-3S IGSO-1S       
1 40549U 15019A   26183.80025122 -.00000190  00000+0  00000+0 0  9997
2 40549  49.1798 295.2769 0076860 219.1125 144.2493  1.00680073 41232
THOR 7                  
1 40613U 15022A   26201.26176250 -.00000011  00000+0  00000+0 0  9995
2 40613   0.0127 279.6283 0002710 196.3959 275.5991  1.00270309 41145
TURKMENALEM52E/MONACOSAT
1 40617U 15023A   26201.27198921  .00000102  00000+0  00000+0 0  9990
2 40617   0.0439  87.1527 0002856  37.2670 323.5577  1.00273813 41183
DIRECTV 15              
1 40663U 15026A   26201.30316264 -.00000104  00000+0  00000+0 0  9993
2 40663   0.0208  80.9491 0000388 353.8082 229.5734  1.00272551 40795
SKY MEXICO-1            
1 40664U 15026B   26201.27634654 -.00000236  00000+0  00000+0 0  9992
2 40664   0.0372 236.6845 0002610 257.7175 184.3374  1.00270367 40786
METEOSAT-11 (MSG-4)     
1 40732U 15034A   26201.26375584  .00000058  00000+0  00000+0 0  9991
2 40732   3.2812  70.8951 0002040 355.2226 336.1421  1.00273442  7544
STAR ONE C4             
1 40733U 15034B   26201.27864352 -.00000267  00000+0  00000+0 0  9992
2 40733   0.0469 295.5922 0001636 151.0042 241.7594  1.00272463 40349
WGS F7 (USA 263)        
1 40746U 15036A   26201.08270127  .00000015  00000+0  00000+0 0  9998
2 40746   0.0152  52.1329 0000164  97.9189 352.5832  1.00272033 40209
INTELSAT 34 (IS-34)     
1 40874U 15039A   26201.20972132 -.00000288  00000+0  00000+0 0  9995
2 40874   0.0089 359.7478 0000593  23.9138 294.3353  1.00272512 39964
EUTELSAT 8 WEST B       
1 40875U 15039B   26201.26028916 -.00000068  00000+0  00000+0 0  9990
2 40875   0.0630 359.4407 0003744 114.6908 269.6094  1.00271420 39986
GSAT-6                  
1 40880U 15041A   26201.13569485 -.00000164  00000+0  00000+0 0  9993
2 40880   2.0011  82.1756 0002935  33.9659 313.1430  1.00272473 39923
INMARSAT 5-F3           
1 40882U 15042A   26201.08348128  .00000048  00000+0  00000+0 0  9999
2 40882   0.0192  59.8025 0000493 104.0228 343.6772  1.00272546 39908
MUOS-4                  
1 40887U 15044A   26201.20537312 -.00000097  00000+0  00000+0 0  9990
2 40887   4.3908  42.4231 0056509   3.7327  40.7392  1.00271954 39899
TJS-1                   
1 40892U 15046A   26201.34642233 -.00000158  00000+0  00000+0 0  9990
2 40892   0.4068  84.7668 0005227  21.1588 111.9298  1.00271435 39908
EXPRESS-AM8             
1 40895U 15048A   26201.25916249 -.00000114  00000+0  00000+0 0  9998
2 40895   0.0152 319.8388 0000347  13.2601  44.2280  1.00270210 39671
BEIDOU-3S IGSO-2S       
1 40938U 15053A   26200.82250711 -.00000107  00000+0  00000+0 0  9991
2 40938  49.1703 258.3907 0066178 193.5852 234.7482  1.00252447 39686
SKY MUSTER 1 (NBN1A)    
1 40940U 15054A   26201.28966928 -.00000280  00000+0  00000+0 0  9992
2 40940   0.0099  29.6644 0001681  84.3722  68.5607  1.00272923 39594
ARSAT 2                 
1 40941U 15054B   26201.27544108 -.00000227  00000+0  00000+0 0  9995
2 40941   0.0504 269.5990 0002187 196.6493 209.9570  1.00272459 39638
MORELOS 3               
1 40946U 15056A   26201.26904103 -.00000046  00000+0  00000+0 0  9995
2 40946   3.2145  15.9041 0000598 159.0078 106.8910  1.00271197 39614
APSTAR-9                
1 40982U 15059A   26201.29001595 -.00000268  00000+0  00000+0 0  9990
2 40982   0.0359  60.9519 0003203 123.2077   0.3190  1.00270715 39459
TURKSAT 4B              
1 40984U 15060A   26201.27172921  .00000113  00000+0  00000+0 0  9992
2 40984   0.0373 239.2756 0002184 229.5607 337.0054  1.00269992 39428
ZHONGXING-2C            
1 41021U 15063A   26200.22961213 -.00000331  00000+0  00000+0 0  9995
2 41021   0.3546  88.5486 0008954 107.9621 286.6179  1.00288439 39308
GSAT-15                 
1 41028U 15065A   26201.13786153 -.00000260  00000+0  00000+0 0  9994
2 41028   0.1047 263.6200 0003552 177.2764   0.1546  1.00272006 39126
BADR-7 (ARABSAT-6B)     
1 41029U 15065B   26201.26704919  .00000143  00000+0  00000+0 0  9998
2 41029   0.0474 232.9804 0004793 329.9050 217.2657  1.00270827 39090
