OBJECT_NAME,OBJECT_ID,EPOCH,MEAN_MOTION,ECCENTRICITY,INCLINATION,RA_OF_ASC_NODE,ARG_OF_PERICENTER,MEAN_ANOMALY,EPHEMERIS_TYPE,CLASSIFICATION_TYPE,NORAD_CAT_ID,ELEMENT_SET_NO,REV_AT_EPOCH,BSTAR,MEAN_MOTION_DOT,MEAN_MOTION_DDOT
ASTRA 2G,2014-089A,2026-07-20T06:25:10.489728,1.00271329,.00045705,0.0595,38.0352,39.7307,344.7350,0,U,40364,999,4229,0,.148E-5,0
FENGYUN 2G,2014-090A,2026-07-19T15:21:36.356832,1.00279249,.00039431,5.7192,72.4242,173.6464,21.2039,0,U,40367,999,4232,0,-.309E-5,0
MUOS-3,2015-002A,2026-07-20T06:12:49.175136,1.00273256,.00539179,4.5826,43.6405,177.0279,155.0635,0,U,40374,999,4191,0,-.133E-5,0
INMARSAT 5-F2,2015-005A,2026-07-20T05:01:59.968704,1.00272315,.00006675,0.0191,59.4460,61.6598,197.3836,0,U,40384,999,4132,0,-.288E-5,0
ABS-3A,2015-010A,2026-07-20T06:16:18.840288,1.00274958,.00016631,0.0114,47.8571,25.1604,316.1444,0,U,40424,999,4170,0,-.28E-6,0
EUTELSAT 115 WEST B,2015-010B,2026-07-20T07:03:49.031136,1.00271909,.0000075,0.0071,115.9672,24.1681,148.9798,0,U,40425,999,4171,0,-.27E-6,0
EXPRESS-AM7,2015-012A,2026-07-20T06:28:32.666592,1.00273440,.00029633,0.0195,78.6685,45.7488,310.7436,0,U,40505,999,4133,0,.149E-5,0
BEIDOU-3S IGSO-1S,2015-019A,2026-07-02T19:12:21.705408,1.00680073,.00768606,49.1798,295.2769,219.1125,144.2493,0,U,40549,999,4123,0,-.19E-5,0
THOR 7,2015-022A,2026-07-20T06:16:56.280000,1.00270309,.00027106,0.0127,279.6283,196.3959,275.5991,0,U,40613,999,4114,0,-.11E-6,0
TURKMENALEM52E/MONACOSAT,2015-023A,2026-07-20T06:31:39.867744,1.00273813,.00028568,0.0439,87.1527,37.2670,323.5577,0,U,40617,999,4118,0,.102E-5,0
DIRECTV 15,2015-026A,2026-07-20T07:16:33.252096,1.00272551,.0000388,0.0208,80.9491,353.8082,229.5734,0,U,40663,999,4079,0,-.104E-5,0
SKY MEXICO-1,2015-026B,2026-07-20T06:37:56.341056,1.00270367,.00026107,0.0372,236.6845,257.7175,184.3374,0,U,40664,999,4078,0,-.236E-5,0
METEOSAT-11 (MSG-4),2015-034A,2026-07-20T06:19:48.504576,1.00273442,.00020409,3.2812,70.8951,355.2226,336.1421,0,U,40732,999,754,0,.58E-6,0
STAR ONE C4,2015-034B,2026-07-20T06:41:14.800128,1.00272463,.00016362,0.0469,295.5922,151.0042,241.7594,0,U,40733,999,4034,0,-.267E-5,0
WGS F7 (USA 263),2015-036A,2026-07-20T01:59:05.389728,1.00272033,.00001641,0.0152,52.1329,97.9189,352.5832,0,U,40746,999,4020,0,.15E-6,0
INTELSAT 34 (IS-34),2015-039A,2026-07-20T05:01:59.922048,1.00272512,.00005935,0.0089,359.7478,23.9138,294.3353,0,U,40874,999,3996,0,-.288E-5,0
EUTELSAT 8 WEST B,2015-039B,2026-07-20T06:14:48.983424,1.00271420,.00037443,0.0630,359.4407,114.6908,269.6094,0,U,40875,999,3998,0,-.68E-6,0
GSAT-6,2015-041A,2026-07-20T03:15:24.035040,1.00272473,.00029356,2.0011,82.1756,33.9659,313.1430,0,U,40880,999,3992,0,-.164E-5,0
INMARSAT 5-F3,2015-042A,2026-07-20T02:00:12.782592,1.00272546,.0000493,0.0192,59.8025,104.0228,343.6772,0,U,40882,999,3990,0,.48E-6,0
MUOS-4,2015-044A,2026-07-20T04:55:44.237568,1.00271954,.00565099,4.3908,42.4231,3.7327,40.7392,0,U,40887,999,3989,0,-.97E-6,0
TJS-1,2015-046A,2026-07-20T08:18:50.889312,1.00271435,.00052272,0.4068,84.7668,21.1588,111.9298,0,U,40892,999,3990,0,-.158E-5,0
EXPRESS-AM8,2015-048A,2026-07-20T06:13:11.639136,1.00270210,.00003478,0.0152,319.8388,13.2601,44.2280,0,U,40895,999,3967,0,-.114E-5,0
BEIDOU-3S IGSO-2S,2015-053A,2026-07-19T19:44:24.614304,1.00252447,.00661783,49.1703,258.3907,193.5852,234.7482,0,U,40938,999,3968,0,-.107E-5,0
SKY MUSTER 1 (NBN1A),2015-054A,2026-07-20T06:57:07.425792,1.00272923,.00016811,0.0099,29.6644,84.3722,68.5607,0,U,40940,999,3959,0,-.28E-5,0
ARSAT 2,2015-054B,2026-07-20T06:36:38.109312,1.00272459,.00021872,0.0504,269.5990,196.6493,209.9570,0,U,40941,999,3963,0,-.227E-5,0
MORELOS 3,2015-056A,2026-07-20T06:27:25.144992,1.00271197,.00005984,3.2145,15.9041,159.0078,106.8910,0,U,40946,999,3961,0,-.46E-6,0
APSTAR-9,2015-059A,2026-07-20T06:57:37.378080,1.00270715,.00032034,0.0359,60.9519,123.2077,0.3190,0,U,40982,999,3945,0,-.268E-5,0
TURKSAT 4B,2015-060A,2026-07-20T06:31:17.403744,1.00269992,.0002184,0.0373,239.2756,229.5607,337.0054,0,U,40984,999,3942,0,.113E-5,0
ZHONGXING-2C,2015-063A,2026-07-19T05:30:38.488032,1.00288439,.00089545,0.3546,88.5486,107.9621,286.6179,0,U,41021,999,3930,0,-.331E-5,0
GSAT-15,2015-065A,2026-07-20T03:18:31.236192,1.00272006,.00035524,0.1047,263.6200,177.2764,0.1546,0,U,41028,999,3912,0,-.26E-5,0
BADR-7 (ARABSAT-6B),2015-065B,2026-07-20T06:24:33.050016,1.00270827,.00047932,0.0474,232.9804,329.9050,217.2657,0,U,41029,999,3909,0,.143E-5,0
